1 45735U 20038F   23141.06340382  .00001636  00000-0  12863-3 0  9993
2 45735  53.0540 151.8536 0001050  77.5076 282.6031 15.06408413163026
1 45735U 20038F   23141.26244267  .00002245  00000-0  16948-3 0  9995
2 45735  53.0528 150.9600 0001082  78.9825 281.1285 15.06410129161936
1 45735U 20038F   23142.39034351  .00000457  00000-0  49578-4 0  9990
2 45735  53.0526 145.8960 0001098  78.7914 281.3198 15.06398717162103
1 45735U 20038F   23142.39034351  .00000457  00000-0  49578-4 0  9990
2 45735  53.0526 145.8960 0001098  78.7914 281.3198 15.06398717163227
1 45735U 20038F   23142.72207623  .00000472  00000-0  50536-4 0  9994
2 45735  53.0523 144.4068 0001021  85.7645 274.3460 15.06400341162155
1 45735U 20038F   23143.71727920  .00000890  00000-0  78653-4 0  9995
2 45735  53.0537 139.9391 0001068  86.2538 273.8573 15.06398268162306
1 45735U 20038F   23143.71727920  .00000890  00000-0  78653-4 0  9995
2 45735  53.0537 139.9391 0001068  86.2538 273.8573 15.06398268163420
1 45735U 20038F   23144.38074811  .00001159  00000-0  96664-4 0  9994
2 45735  53.0538 136.9606 0001077  87.8064 272.3049 15.06397868162402
1 45735U 20038F   23146.17211580  .00000074  00000-0  23842-4 0  9992
2 45735  53.0534 128.9188 0001079  89.7385 270.3727 15.06392476163797
1 45735U 20038F   23147.23365742  .00000590  00000-0  58489-4 0  9998
2 45735  53.0532 124.1521 0001136  89.1493 270.9626 15.06403386163957
1 45735U 20038F   23147.63174381  .00000478  00000-0  50945-4 0  9993
2 45735  53.0521 122.3659 0001032  83.6265 276.4841 15.06395893164019
1 45735U 20038F   23147.89713494  .00000722  00000-0  67341-4 0  9995
2 45735  53.0536 121.1771 0001244 101.2174 258.8955 15.06390945162930
1 45735U 20038F   23148.09617883  .00000184  00000-0  31239-4 0  9992
2 45735  53.0541 120.2828 0001223  99.0512 261.0615 15.06389154164083
1 45735U 20038F   23148.22887218  .00000371  00000-0  43816-4 0  9990
2 45735  53.0540 119.6871 0001238  98.4086 261.7043 15.06390643162981
1 45735U 20038F   23148.62694868  .00001050  00000-0  89392-4 0  9995
2 45735  53.0541 117.9000 0001257  99.7780 260.3351 15.06397563163046
1 45735U 20038F   23148.62694868  .00001050  00000-0  89392-4 0  9995
2 45735  53.0541 117.9000 0001257  99.7780 260.3351 15.06397563164160
1 45735U 20038F   23149.15771568  .00001272  00000-0  10427-3 0  9995
2 45735  53.0542 115.5171 0001235 100.4622 259.6506 15.06407406164245
1 45735U 20038F   23149.22406111  .00001455  00000-0  11651-3 0  9995
2 45735  53.0542 115.2192 0001249 100.1204 259.9926 15.06408818163137
1 45735U 20038F   23149.88754547  .00000404  00000-0  46047-4 0  9997
2 45735  53.0552 112.2412 0001302 104.5718 255.5415 15.06388170163232
1 45735U 20038F   23150.15293915  .00000559  00000-0  56424-4 0  9997
2 45735  53.0559 111.0474 0001268 101.0654 259.0478 15.06382043164395
1 45735U 20038F   23150.88275078 -.00000612  00000-0 -22224-4 0  9990
2 45735  53.0559 107.7713 0001354  94.1421 265.9722 15.06396426163389
1 45735U 20038F   23151.08178816 -.00000065  00000-0  14549-4 0  9997
2 45735  53.0556 106.8810 0001338  89.6492 270.4651 15.06400779164530
1 45735U 20038F   23151.28082396  .00001110  00000-0  93420-4 0  9992
2 45735  53.0553 105.9841 0001310 103.2834 256.8301 15.06404109163444
1 45735U 20038F   23151.87795963  .00001281  00000-0  10488-3 0  9999
2 45735  53.0536 103.3025 0001321  95.7881 264.3259 15.06385874163533
1 45735U 20038F   23152.07699896  .00001287  00000-0  10528-3 0  9991
2 45735  53.0535 102.4075 0001223  93.6889 266.4240 15.06389612164687
1 45735U 20038F   23152.14334392  .00001912  00000-0  14723-3 0  9992
2 45735  53.0540 102.1108 0001212  93.8731 266.2397 15.06392548163573
1 45735U 20038F   23153.13852737  .00006238  00000-0  43701-3 0  9994
2 45735  53.0536  97.6442 0001169  90.9586 269.1536 15.06427208163720
1 45735U 20038F   23153.13852737  .00006238  00000-0  43701-3 0  9994
2 45735  53.0536  97.6442 0001169  90.9586 269.1536 15.06427208164844
1 45735U 20038F   23154.13375145 -.00003115  00000-0 -19043-3 0  9993
2 45735  53.0541  93.1780 0001140  86.3631 273.7489 15.06384279163875
1 45735U 20038F   23154.13375145 -.00003115  00000-0 -19043-3 0  9993
2 45735  53.0541  93.1780 0001140  86.3631 273.7489 15.06384279164999
1 45735U 20038F   23155.06260277 -.00002709  00000-0 -16306-3 0  9992
2 45735  53.0547  89.0080 0001311 101.8475 258.2661 15.06397427165137
1 45735U 20038F   23155.19529456 -.00000428  00000-0 -98276-5 0  9997
2 45735  53.0548  88.4122 0001219  85.7322 274.3806 15.06403910164039
1 45735U 20038F   23155.79242914  .00003773  00000-0  27215-3 0  9991
2 45735  53.0548  85.7337 0001293  93.1039 267.0098 15.06387504164129
1 45735U 20038F   23155.79242914  .00003773  00000-0  27215-3 0  9991
2 45735  53.0548  85.7337 0001293  93.1039 267.0098 15.06387504165243
1 45735U 20038F   23156.52223650  .00005104  00000-0  36122-3 0  9996
2 45735  53.0546  82.4546 0001214  89.8394 270.2734 15.06407422164239
1 45735U 20038F   23156.85396135  .00006756  00000-0  47172-3 0  9992
2 45735  53.0542  80.9662 0001198  92.5963 267.5163 15.06423393164286
1 45735U 20038F   23157.18568722  .00012699  00000-0  86895-3 0  9990
2 45735  53.0544  79.4774 0000956  94.1715 265.9383 15.06438468164330
1 45735U 20038F   23157.18568722  .00012699  00000-0  86895-3 0  9990
2 45735  53.0544  79.4774 0000956  94.1715 265.9383 15.06438468165454
1 45735U 20038F   23157.51743518 -.00002333  00000-0 -13778-3 0  9991
2 45735  53.0554  77.9897 0001588  77.7817 282.3350 15.06398019164381
1 45735U 20038F   23157.98186279 -.00004232  00000-0 -26546-3 0  9994
2 45735  53.0546  75.9034 0000798  92.8091 267.2989 15.06393202165578
1 45735U 20038F   23158.18090339 -.00001705  00000-0 -95653-4 0  9996
2 45735  53.0545  75.0104 0000930  77.3898 282.7195 15.06393604164483
1 45735U 20038F   23158.91071619  .00012939  00000-0  88562-3 0  9996
2 45735  53.0545  71.7336 0000645 103.7725 256.3336 15.06411564164591
1 45735U 20038F   23159.04340898  .00020727  00000-0  14054-2 0  9997
2 45735  53.0544  71.1386 0000627  79.7966 280.3094 15.06422799164611
1 45735U 20038F   23159.04340898  .00020727  00000-0  14054-2 0  9997
2 45735  53.0544  71.1386 0000627  79.7966 280.3094 15.06422799165735
1 45735U 20038F   23160.10496881  .00024888  00000-0  16844-2 0  9991
2 45735  53.0545  66.3730 0000693 121.0835 239.0222 15.06387282165892
1 45735U 20038F   23160.43670316  .00021441  00000-0  14539-2 0  9995
2 45735  53.0543  64.8834 0000615 122.3982 237.7066 15.06401513164826
1 45735U 20038F   23161.16650793  .00022597  00000-0  15296-2 0  9997
2 45735  53.0541  61.6073 0000617 126.2132 233.8914 15.06434503166057
1 45735U 20038F   23161.43190366  .00009861  00000-0  67984-3 0  9993
2 45735  53.0528  60.4140 0001799  75.5599 284.5589 15.06407254164972
1 45735U 20038F   23161.43190366  .00009861  00000-0  67984-3 0  9993
2 45735  53.0528  60.4140 0001799  75.5599 284.5589 15.06407254166097
1 45735U 20038F   23161.69728947  .00002664  00000-0  19766-3 0  9992
2 45735  53.0536  59.2273 0001267  86.6250 273.4884 15.06402852165011
1 45735U 20038F   23161.69728947  .00002664  00000-0  19766-3 0  9992
2 45735  53.0536  59.2273 0001267  86.6250 273.4884 15.06402852166135
1 45735U 20038F   23162.09537588  .00005673  00000-0  39949-3 0  9994
2 45735  53.0540  57.4370 0000542  97.2647 262.8404 15.06391415166199
1 45735U 20038F   23162.42711432  .00023529  00000-0  15934-2 0  9990
2 45735  53.0544  55.9486 0000523  84.9211 275.1837 15.06395793165125
1 45735U 20038F   23162.95788526  .00024143  00000-0  16333-2 0  9993
2 45735  53.0546  53.5660 0000513  80.7063 279.3984 15.06419887165202
1 45735U 20038F   23163.09057644  .00026312  00000-0  17774-2 0  9999
2 45735  53.0544  52.9699 0000479  82.6444 277.4600 15.06427619166342
1 45735U 20038F   23163.42231426  .00010255  00000-0  70625-3 0  9992
2 45735  53.0547  51.4803 0000707  76.7716 283.3352 15.06405193165270
1 45735U 20038F   23163.42231426  .00010255  00000-0  70625-3 0  9992
2 45735  53.0547  51.4803 0000707  76.7716 283.3352 15.06405193166394
1 45735U 20038F   23163.95309520  .00006735  00000-0  47067-3 0  9993
2 45735  53.0548  49.0976 0000795  83.1206 276.9873 15.06395604165358
1 45735U 20038F   23164.08579280  .00025030  00000-0  16938-2 0  9991
2 45735  53.0550  48.5024 0000847  80.8452 279.2633 15.06388774166490
1 45735U 20038F   23164.55022014  .00016800  00000-0  11439-2 0  9997
2 45735  53.0553  46.4180 0000822  78.3409 281.7672 15.06405019165447
1 45735U 20038F   23164.88194969  .00018432  00000-0  12524-2 0  9991
2 45735  53.0553  44.9283 0000832  80.0645 280.0438 15.06420551165492
1 45735U 20038F   23164.94829534  .00018656  00000-0  12672-2 0  9993
2 45735  53.0553  44.6303 0000827  81.5214 278.5868 15.06423227165508
1 45735U 20038F   23164.94829534  .00018656  00000-0  12672-2 0  9993
2 45735  53.0553  44.6303 0000827  81.5214 278.5868 15.06423227166622
1 45735U 20038F   23165.81080991  .00008051  00000-0  55867-3 0  9998
2 45735  53.0555  40.7586 0001006  74.9274 285.1827 15.06404272165634
1 45735U 20038F   23165.94350398  .00008550  00000-0  59213-3 0  9996
2 45735  53.0566  40.1613 0001029  77.1162 282.9942 15.06403033165656
1 45735U 20038F   23165.94350398  .00008550  00000-0  59213-3 0  9996
2 45735  53.0566  40.1613 0001029  77.1162 282.9942 15.06403033166770
1 45735U 20038F   23166.67331592  .00011919  00000-0  81740-3 0  9995
2 45735  53.0550  36.8867 0000874 109.8202 250.2882 15.06411938165763
1 45735U 20038F   23167.07138850  .00018665  00000-0  12675-2 0  9997
2 45735  53.0552  35.1001 0000775 112.5572 247.5499 15.06433624166948
1 45735U 20038F   23167.40312312 -.00002767  00000-0 -16686-3 0  9996
2 45735  53.0541  33.6126 0000737  80.6645 279.4427 15.06426886165879
1 45735U 20038F   23167.40312312 -.00002767  00000-0 -16686-3 0  9996
2 45735  53.0541  33.6126 0000737  80.6645 279.4427 15.06426886166993
1 45735U 20038F   23167.73485932  .00000428  00000-0  47604-4 0  9996
2 45735  53.0547  32.1220 0000669  97.5165 262.5900 15.06403311165925
